STARLINK-31953          
1 59898U 24100P   26068.54193809 -.00002433  00000+0 -78926-4 0  9996
2 59898  43.0009 122.8244 0001284 216.3366 143.7398 15.27573178101173
KUIPER-00266            
1 67789U 26030AB  26067.91293632  .00029701  00000+0  98220-3 0  9996
2 67789  51.8807 223.5904 0022313  72.5291 287.8129 15.30874235  4964
