[{"OBJECT_NAME":"STARLINK-31953","OBJECT_ID":"2024-100P","EPOCH":"2026-03-09T13:00:23.450976","MEAN_MOTION":15.27573178,"ECCENTRICITY":0.00012849,"INCLINATION":43.0009,"RA_OF_ASC_NODE":122.8244,"ARG_OF_PERICENTER":216.3366,"MEAN_ANOMALY":143.7398,"EPHEMERIS_TYPE":0,"CLASSIFICATION_TYPE":"U","NORAD_CAT_ID":59898,"ELEMENT_SET_NO":999,"REV_AT_EPOCH":10117,"BSTAR":-7.8925757e-5,"MEAN_MOTION_DOT":-2.433e-5,"MEAN_MOTION_DDOT":0},{"OBJECT_NAME":"KUIPER-00266","OBJECT_ID":"2026-030AB","EPOCH":"2026-03-08T21:54:37.698048","MEAN_MOTION":15.30874235,"ECCENTRICITY":0.0022313,"INCLINATION":51.8807,"RA_OF_ASC_NODE":223.5904,"ARG_OF_PERICENTER":72.5291,"MEAN_ANOMALY":287.8129,"EPHEMERIS_TYPE":0,"CLASSIFICATION_TYPE":"U","NORAD_CAT_ID":67789,"ELEMENT_SET_NO":999,"REV_AT_EPOCH":496,"BSTAR":0.00098219753,"MEAN_MOTION_DOT":0.00029701,"MEAN_MOTION_DDOT":0}]
